STARLINK-30095
1 56289U 23056D   26061.16668981  .01385421  00000+0  72416-1 0  9990
2 56289  43.0009 224.9429 0001794 301.0795  34.3443 15.12146646  5660
STARLINK-30075
1 57616U 23119Q   26061.16668981  .00095279  00000+0  53703-2 0  9992
2 57616  42.9997 122.7796 0001521 253.8368   6.9642 15.12152711  5812
